<?xml version="1.0" encoding="UTF-8"?>
<ndm xmlns:xsi="http://www.w3.org/2001/XMLSchema-instance" xsi:noNamespaceSchemaLocation="https://sanaregistry.org/r/ndmxml_unqualified/ndmxml-2.0.0-master-2.0.xsd">
<omm id="CCSDS_OMM_VERS" version="2.0">
<header><CREATION_DATE/><ORIGINATOR/></header><body><segment><metadata><OBJECT_NAME>ONEWEB-0683</OBJECT_NAME><OBJECT_ID>2023-068K</OBJECT_ID><CENTER_NAME>EARTH</CENTER_NAME><REF_FRAME>TEME</REF_FRAME><TIME_SYSTEM>UTC</TIME_SYSTEM><MEAN_ELEMENT_THEORY>SGP4</MEAN_ELEMENT_THEORY></metadata><data><meanElements><EPOCH>2025-10-31T12:04:32.392416</EPOCH><MEAN_MOTION>13.15549750</MEAN_MOTION><ECCENTRICITY>.000193</ECCENTRICITY><INCLINATION>87.8964</INCLINATION><RA_OF_ASC_NODE>304.8165</RA_OF_ASC_NODE><ARG_OF_PERICENTER>82.6161</ARG_OF_PERICENTER><MEAN_ANOMALY>277.5188</MEAN_ANOMALY></meanElements><tleParameters><EPHEMERIS_TYPE>0</EPHEMERIS_TYPE><CLASSIFICATION_TYPE>U</CLASSIFICATION_TYPE><NORAD_CAT_ID>56719</NORAD_CAT_ID><ELEMENT_SET_NO>999</ELEMENT_SET_NO><REV_AT_EPOCH>11935</REV_AT_EPOCH><BSTAR>-.1459E-3</BSTAR><MEAN_MOTION_DOT>-.42E-6</MEAN_MOTION_DOT><MEAN_MOTION_DDOT>0</MEAN_MOTION_DDOT></tleParameters></data></segment></body></omm>
<omm id="CCSDS_OMM_VERS" version="2.0">
<header><CREATION_DATE/><ORIGINATOR/></header><body><segment><metadata><OBJECT_NAME>ONEWEB-0684</OBJECT_NAME><OBJECT_ID>2023-068L</OBJECT_ID><CENTER_NAME>EARTH</CENTER_NAME><REF_FRAME>TEME</REF_FRAME><TIME_SYSTEM>UTC</TIME_SYSTEM><MEAN_ELEMENT_THEORY>SGP4</MEAN_ELEMENT_THEORY></metadata><data><meanElements><EPOCH>2025-10-31T12:15:57.144384</EPOCH><MEAN_MOTION>13.15548774</MEAN_MOTION><ECCENTRICITY>.0003126</ECCENTRICITY><INCLINATION>87.8960</INCLINATION><RA_OF_ASC_NODE>304.8103</RA_OF_ASC_NODE><ARG_OF_PERICENTER>107.8387</ARG_OF_PERICENTER><MEAN_ANOMALY>252.3084</MEAN_ANOMALY></meanElements><tleParameters><EPHEMERIS_TYPE>0</EPHEMERIS_TYPE><CLASSIFICATION_TYPE>U</CLASSIFICATION_TYPE><NORAD_CAT_ID>56720</NORAD_CAT_ID><ELEMENT_SET_NO>999</ELEMENT_SET_NO><REV_AT_EPOCH>11918</REV_AT_EPOCH><BSTAR>.88007E-4</BSTAR><MEAN_MOTION_DOT>.46E-6</MEAN_MOTION_DOT><MEAN_MOTION_DDOT>0</MEAN_MOTION_DDOT></tleParameters></data></segment></body></omm>
<omm id="CCSDS_OMM_VERS" version="2.0">
<header><CREATION_DATE/><ORIGINATOR/></header><body><segment><metadata><OBJECT_NAME>ONEWEB-0686</OBJECT_NAME><OBJECT_ID>2023-068M</OBJECT_ID><CENTER_NAME>EARTH</CENTER_NAME><REF_FRAME>TEME</REF_FRAME><TIME_SYSTEM>UTC</TIME_SYSTEM><MEAN_ELEMENT_THEORY>SGP4</MEAN_ELEMENT_THEORY></metadata><data><meanElements><EPOCH>2025-10-31T15:28:31.946016</EPOCH><MEAN_MOTION>13.16594734</MEAN_MOTION><ECCENTRICITY>.0002223</ECCENTRICITY><INCLINATION>87.8983</INCLINATION><RA_OF_ASC_NODE>274.3180</RA_OF_ASC_NODE><ARG_OF_PERICENTER>79.6809</ARG_OF_PERICENTER><MEAN_ANOMALY>280.4572</MEAN_ANOMALY></meanElements><tleParameters><EPHEMERIS_TYPE>0</EPHEMERIS_TYPE><CLASSIFICATION_TYPE>U</CLASSIFICATION_TYPE><NORAD_CAT_ID>56721</NORAD_CAT_ID><ELEMENT_SET_NO>999</ELEMENT_SET_NO><REV_AT_EPOCH>12164</REV_AT_EPOCH><BSTAR>-.10841E-3</BSTAR><MEAN_MOTION_DOT>-.29E-6</MEAN_MOTION_DOT><MEAN_MOTION_DDOT>0</MEAN_MOTION_DDOT></tleParameters></data></segment></body></omm>
<omm id="CCSDS_OMM_VERS" version="2.0">
<header><CREATION_DATE/><ORIGINATOR/></header><body><segment><metadata><OBJECT_NAME>ONEWEB-0694</OBJECT_NAME><OBJECT_ID>2023-068N</OBJECT_ID><CENTER_NAME>EARTH</CENTER_NAME><REF_FRAME>TEME</REF_FRAME><TIME_SYSTEM>UTC</TIME_SYSTEM><MEAN_ELEMENT_THEORY>SGP4</MEAN_ELEMENT_THEORY></metadata><data><meanElements><EPOCH>2025-10-31T20:08:57.451776</EPOCH><MEAN_MOTION>13.16592259</MEAN_MOTION><ECCENTRICITY>.0002066</ECCENTRICITY><INCLINATION>87.9000</INCLINATION><RA_OF_ASC_NODE>274.2178</RA_OF_ASC_NODE><ARG_OF_PERICENTER>70.7497</ARG_OF_PERICENTER><MEAN_ANOMALY>289.3857</MEAN_ANOMALY></meanElements><tleParameters><EPHEMERIS_TYPE>0</EPHEMERIS_TYPE><CLASSIFICATION_TYPE>U</CLASSIFICATION_TYPE><NORAD_CAT_ID>56722</NORAD_CAT_ID><ELEMENT_SET_NO>999</ELEMENT_SET_NO><REV_AT_EPOCH>12172</REV_AT_EPOCH><BSTAR>-.76017E-4</BSTAR><MEAN_MOTION_DOT>-.16E-6</MEAN_MOTION_DOT><MEAN_MOTION_DDOT>0</MEAN_MOTION_DDOT></tleParameters></data></segment></body></omm>
<omm id="CCSDS_OMM_VERS" version="2.0">
<header><CREATION_DATE/><ORIGINATOR/></header><body><segment><metadata><OBJECT_NAME>ONEWEB-0696</OBJECT_NAME><OBJECT_ID>2023-068P</OBJECT_ID><CENTER_NAME>EARTH</CENTER_NAME><REF_FRAME>TEME</REF_FRAME><TIME_SYSTEM>UTC</TIME_SYSTEM><MEAN_ELEMENT_THEORY>SGP4</MEAN_ELEMENT_THEORY></metadata><data><meanElements><EPOCH>2025-10-31T16:42:54.447264</EPOCH><MEAN_MOTION>13.15549182</MEAN_MOTION><ECCENTRICITY>.0002027</ECCENTRICITY><INCLINATION>87.8959</INCLINATION><RA_OF_ASC_NODE>304.8295</RA_OF_ASC_NODE><ARG_OF_PERICENTER>101.0887</ARG_OF_PERICENTER><MEAN_ANOMALY>259.0472</MEAN_ANOMALY></meanElements><tleParameters><EPHEMERIS_TYPE>0</EPHEMERIS_TYPE><CLASSIFICATION_TYPE>U</CLASSIFICATION_TYPE><NORAD_CAT_ID>56723</NORAD_CAT_ID><ELEMENT_SET_NO>999</ELEMENT_SET_NO><REV_AT_EPOCH>11932</REV_AT_EPOCH><BSTAR>.36975E-3</BSTAR><MEAN_MOTION_DOT>.152E-5</MEAN_MOTION_DOT><MEAN_MOTION_DDOT>0</MEAN_MOTION_DDOT></tleParameters></data></segment></body></omm>
<omm id="CCSDS_OMM_VERS" version="2.0">
<header><CREATION_DATE/><ORIGINATOR/></header><body><segment><metadata><OBJECT_NAME>ONEWEB-0703</OBJECT_NAME><OBJECT_ID>2023-068Q</OBJECT_ID><CENTER_NAME>EARTH</CENTER_NAME><REF_FRAME>TEME</REF_FRAME><TIME_SYSTEM>UTC</TIME_SYSTEM><MEAN_ELEMENT_THEORY>SGP4</MEAN_ELEMENT_THEORY></metadata><data><meanElements><EPOCH>2025-10-31T16:56:34.937088</EPOCH><MEAN_MOTION>13.15547569</MEAN_MOTION><ECCENTRICITY>.0002</ECCENTRICITY><INCLINATION>87.8955</INCLINATION><RA_OF_ASC_NODE>304.8100</RA_OF_ASC_NODE><ARG_OF_PERICENTER>122.0649</ARG_OF_PERICENTER><MEAN_ANOMALY>238.0676</MEAN_ANOMALY></meanElements><tleParameters><EPHEMERIS_TYPE>0</EPHEMERIS_TYPE><CLASSIFICATION_TYPE>U</CLASSIFICATION_TYPE><NORAD_CAT_ID>56724</NORAD_CAT_ID><ELEMENT_SET_NO>999</ELEMENT_SET_NO><REV_AT_EPOCH>11921</REV_AT_EPOCH><BSTAR>.13942E-3</BSTAR><MEAN_MOTION_DOT>.65E-6</MEAN_MOTION_DOT><MEAN_MOTION_DDOT>0</MEAN_MOTION_DDOT></tleParameters></data></segment></body></omm>
<omm id="CCSDS_OMM_VERS" version="2.0">
<header><CREATION_DATE/><ORIGINATOR/></header><body><segment><metadata><OBJECT_NAME>ONEWEB-0721</OBJECT_NAME><OBJECT_ID>2023-068R</OBJECT_ID><CENTER_NAME>EARTH</CENTER_NAME><REF_FRAME>TEME</REF_FRAME><TIME_SYSTEM>UTC</TIME_SYSTEM><MEAN_ELEMENT_THEORY>SGP4</MEAN_ELEMENT_THEORY></metadata><data><meanElements><EPOCH>2025-10-31T15:32:35.836800</EPOCH><MEAN_MOTION>13.22449846</MEAN_MOTION><ECCENTRICITY>.0001518</ECCENTRICITY><INCLINATION>86.6815</INCLINATION><RA_OF_ASC_NODE>158.4054</RA_OF_ASC_NODE><ARG_OF_PERICENTER>81.2753</ARG_OF_PERICENTER><MEAN_ANOMALY>278.8552</MEAN_ANOMALY></meanElements><tleParameters><EPHEMERIS_TYPE>0</EPHEMERIS_TYPE><CLASSIFICATION_TYPE>U</CLASSIFICATION_TYPE><NORAD_CAT_ID>56725</NORAD_CAT_ID><ELEMENT_SET_NO>999</ELEMENT_SET_NO><REV_AT_EPOCH>12773</REV_AT_EPOCH><BSTAR>.18494E-3</BSTAR><MEAN_MOTION_DOT>.92E-6</MEAN_MOTION_DOT><MEAN_MOTION_DDOT>0</MEAN_MOTION_DDOT></tleParameters></data></segment></body></omm>
<omm id="CCSDS_OMM_VERS" version="2.0">
<header><CREATION_DATE/><ORIGINATOR/></header><body><segment><metadata><OBJECT_NAME>ONEWEB-0015</OBJECT_NAME><OBJECT_ID>2024-188A</OBJECT_ID><CENTER_NAME>EARTH</CENTER_NAME><REF_FRAME>TEME</REF_FRAME><TIME_SYSTEM>UTC</TIME_SYSTEM><MEAN_ELEMENT_THEORY>SGP4</MEAN_ELEMENT_THEORY></metadata><data><meanElements><EPOCH>2025-10-31T19:12:55.550880</EPOCH><MEAN_MOTION>13.11415393</MEAN_MOTION><ECCENTRICITY>.0001071</ECCENTRICITY><INCLINATION>87.8847</INCLINATION><RA_OF_ASC_NODE>66.5817</RA_OF_ASC_NODE><ARG_OF_PERICENTER>95.2692</ARG_OF_PERICENTER><MEAN_ANOMALY>264.8558</MEAN_ANOMALY></meanElements><tleParameters><EPHEMERIS_TYPE>0</EPHEMERIS_TYPE><CLASSIFICATION_TYPE>U</CLASSIFICATION_TYPE><NORAD_CAT_ID>61594</NORAD_CAT_ID><ELEMENT_SET_NO>999</ELEMENT_SET_NO><REV_AT_EPOCH>5452</REV_AT_EPOCH><BSTAR>.15232E-2</BSTAR><MEAN_MOTION_DOT>.553E-5</MEAN_MOTION_DOT><MEAN_MOTION_DDOT>0</MEAN_MOTION_DDOT></tleParameters></data></segment></body></omm>

</ndm>
