ONEWEB-0683             
1 56719U 23068K   25304.50315269 -.00000042  00000+0 -14590-3 0  9991
2 56719  87.8964 304.8165 0001930  82.6161 277.5188 13.15549750119353
ONEWEB-0684             
1 56720U 23068L   25304.51107806  .00000046  00000+0  88007-4 0  9997
2 56720  87.8960 304.8103 0003126 107.8387 252.3084 13.15548774119184
ONEWEB-0686             
1 56721U 23068M   25304.64481419 -.00000029  00000+0 -10841-3 0  9990
2 56721  87.8983 274.3180 0002223  79.6809 280.4572 13.16594734121644
ONEWEB-0694             
1 56722U 23068N   25304.83955384 -.00000016  00000+0 -76017-4 0  9993
2 56722  87.9000 274.2178 0002066  70.7497 289.3857 13.16592259121725
ONEWEB-0696             
1 56723U 23068P   25304.69646351  .00000152  00000+0  36975-3 0  9996
2 56723  87.8959 304.8295 0002027 101.0887 259.0472 13.15549182119322
ONEWEB-0703             
1 56724U 23068Q   25304.70595992  .00000065  00000+0  13942-3 0  9995
2 56724  87.8955 304.8100 0002000 122.0649 238.0676 13.15547569119212
ONEWEB-0721             
1 56725U 23068R   25304.64763700  .00000092  00000+0  18494-3 0  9990
2 56725  86.6815 158.4054 0001518  81.2753 278.8552 13.22449846127739
ONEWEB-0015             
1 61594U 24188A   25304.80064295  .00000553  00000+0  15232-2 0  9993
2 61594  87.8847  66.5817 0001071  95.2692 264.8558 13.11415393 54529
